GLOBALSTAR M084         
1 38040U 11080A   24131.60151102 -.00000059  00000+0  24881-3 0  9992
2 38040  51.9995 194.0902 0000306 184.9527 339.2806 12.62262190571820
GLOBALSTAR M080         
1 38041U 11080B   24131.65468260 -.00000060  00000+0  24394-3 0  9995
2 38041  52.0046 195.3950 0000589 186.2252 338.8169 12.62272345572090
GLOBALSTAR M082         
1 38042U 11080C   24131.31777354 -.00000083  00000+0  11352-3 0  9991
2 38042  52.0053 151.8245 0000656  37.5277 335.3592 12.62269450572627
GLOBALSTAR M092         
1 38043U 11080D   24131.60781133 -.00000068  00000+0  20212-3 0  9992
2 38043  52.0079 241.2937 0000343 136.4675 236.7166 12.62279998571114
GLOBALSTAR M090         
1 38044U 11080E   24131.77461025 -.00000100  00000+0  19696-4 0  9998
2 38044  51.9860 144.7594 0000436  54.7154 115.9303 12.62263054572831
GLOBALSTAR M086         
1 38045U 11080F   24131.29110987 -.00000089  00000+0  82144-4 0  9998
2 38045  51.9872 146.7514 0001007 139.7710 232.8445 12.62270695572684
GLOBALSTAR M097         
1 39072U 13005A   24131.47351166 -.00000102  00000+0  86761-5 0  9990
2 39072  52.0061  60.3338 0000816  74.2504 285.8453 12.62262601519959
GLOBALSTAR M093         
1 39073U 13005B   24131.52603627 -.00000090  00000+0  74482-4 0  9991
2 39073  51.9828  54.1200 0000956  74.4805 285.6167 12.62263881519916
